0 SL-16 DEB
1 22506U 92093GR  13281.09620893  .00009825  00000-0  23382-2 0   164
2 22506 070.6713 167.0449 0055524 032.6864 327.7692 14.53074988 69833
0 SL-16 DEB
1 22506U 92093GR  13282.47299250  .00017083  00000-0  40459-2 0   176
2 22506 070.6715 163.9173 0055594 030.7092 329.7281 14.53125044 70033
0 SL-16 DEB
1 22506U 92093GR  13283.02369102  .00015081  00000-0  35737-2 0   182
2 22506 070.6717 162.6659 0055679 029.9776 330.4532 14.53132680 70114
0 SL-16 DEB
1 22506U 92093GR  13285.77711837  .00010799  00000-0  25610-2 0   205
2 22506 070.6724 156.4105 0055883 025.9209 334.4711 14.53191371 70512
0 SL-16 DEB
1 22506U 92093GR  13288.04861273  .00020249  00000-0  47772-2 0   213
2 22506 070.6724 151.2500 0056022 022.6654 337.6941 14.53244112 70846
0 SL-16 DEB
1 22506U 92093GR  13289.42522718  .00015159  00000-0  35794-2 0   220
2 22506 070.6720 148.1219 0056076 020.6331 339.7055 14.53283806 71048
0 SL-16 DEB
1 22506U 92093GR  13290.66415316  .00015437  00000-0  36422-2 0   232
2 22506 070.6715 145.3065 0056150 018.7913 341.5282 14.53312384 71224
0 SL-16 DEB
1 22506U 92093GR  13291.42126131  .00013197  00000-0  31154-2 0   240
2 22506 070.6713 143.5859 0056199 017.6697 342.6380 14.53330266 71335
0 SL-16 DEB
1 22506U 92093GR  13293.69253440  .00013009  00000-0  30681-2 0   252
2 22506 070.6714 138.4242 0056320 014.3039 345.9680 14.53377264 71669
